[{"name":"BEIDOU-3S IGSO-1S","line1":"1 40549U 15019A   26176.81692014 -.00000174  00000+0  00000+0 0  9992","line2":"2 40549  49.1775 295.3568 0039037 191.6631 171.6620  1.00249619 41161"},{"name":"NAVSTAR 74 (USA 262)","line1":"1 40730U 15033A   26177.19577832 -.00000036  00000+0  00000+0 0  9999","line2":"2 40730  53.9753 266.7149 0115154  30.2445 330.4598  2.00555927 80171"},{"name":"BEIDOU-3S M2S","line1":"1 40748U 15037A   26174.22980179 -.00000108  00000+0  00000+0 0  9995","line2":"2 40748  54.8652 301.8377 0008569 258.4474 101.4494  1.86231957 74237"},{"name":"BEIDOU-3S M1S","line1":"1 40749U 15037B   26175.51021828 -.00000109  00000+0  00000+0 0  9997","line2":"2 40749  54.8605 301.7817 0003283  62.2648 297.7606  1.86254971 74264"},{"name":"GSAT0206 (GALILEO 10)","line1":"1 40890U 15045B   26175.49628500  .00000051  00000+0  00000+0 0  9995","line2":"2 40890  54.9433 221.4024 0001685 336.0482  24.0274  1.70473861 67168"},{"name":"BEIDOU-3S IGSO-2S","line1":"1 40938U 15053A   26177.68456692 -.00000116  00000+0  00000+0 0  9994","line2":"2 40938  49.2053 258.6677 0065523 192.9538 164.2588  1.00257789 39441"},{"name":"NAVSTAR 75 (USA 265)","line1":"1 41019U 15062A   26177.25150271 -.00000083  00000+0  00000+0 0  9995","line2":"2 41019  56.9655  30.4619 0112169 231.0060 128.0428  2.00567152 78017"},{"name":"GSAT-15","line1":"1 41028U 15065A   26177.61291825 -.00000246  00000+0  00000+0 0  9990","line2":"2 41028   0.0494 263.8494 0004605 172.6106 152.4465  1.00271167 38898"},{"name":"GSAT0209 (GALILEO 12)","line1":"1 41174U 15079A   26176.25098990 -.00000038  00000+0  00000+0 0  9993","line2":"2 41174  55.8320 101.0407 0005047 349.0522  10.9102  1.70473764 64918"},{"name":"GSAT0208 (GALILEO 11)","line1":"1 41175U 15079B   26173.53836061 -.00000027  00000+0  00000+0 0  9999","line2":"2 41175  55.8290 101.1119 0004839 343.6998  16.2634  1.70473694 65283"},{"name":"IRNSS-1E","line1":"1 41241U 16003A   26176.59836588 -.00000319  00000+0  00000+0 0  9998","line2":"2 41241  33.2517  59.6282 0019062 179.1130   2.2203  1.00274592 38164"},{"name":"NAVSTAR 76 (USA 266)","line1":"1 41328U 16007A   26177.34308399 -.00000066  00000+0  00000+0 0  9995","line2":"2 41328  55.5293  89.0967 0095637 247.1706 111.8201  2.00551441 76026"},{"name":"COSMOS 2514 [GLONASS-M]","line1":"1 41330U 16008A   26177.67036022 -.00000084  00000+0  00000+0 0  9996","line2":"2 41330  65.0155 312.6811 0011642 199.0102 160.9356  2.13102793 80829"},{"name":"BEIDOU-2 IGSO-6","line1":"1 41434U 16021A   26177.11016981 -.00000145  00000+0  00000+0 0  9995","line2":"2 41434  60.2385  37.9495 0057558 231.0163 137.2672  1.00258926 37578"},{"name":"IRNSS-1G","line1":"1 41469U 16027A   26176.35615294 -.00000329  00000+0  00000+0 0  9990","line2":"2 41469   5.2158  97.2878 0006269   2.9813  70.7125  1.00276580 37263"},{"name":"GSAT0211 (GALILEO 14)","line1":"1 41549U 16030A   26174.83541472  .00000046  00000+0  00000+0 0  9995","line2":"2 41549  55.0937 221.5119 0003056 321.3377  38.7209  1.70474023 62785"},{"name":"GSAT0210 (GALILEO 13)","line1":"1 41550U 16030B   26176.26585571  .00000056  00000+0  00000+0 0  9995","line2":"2 41550  55.0912 221.4705 0008659 257.5264 102.4641  1.70473937 62804"},{"name":"BEIDOU-2 G7","line1":"1 41586U 16037A   26177.75884733 -.00000343  00000+0  00000+0 0  9998","line2":"2 41586   1.7440  69.4136 0006836   1.2173 227.9870  1.00272479  6988"},{"name":"EUTELSAT 117 WEST B","line1":"1 41589U 16038B   26177.64245442  .00000000  00000+0  00000+0 0  9997","line2":"2 41589   0.0052 198.0230 0000281  90.3505 100.6951  1.00269678 36754"},{"name":"GSAT0207 (GALILEO 15)","line1":"1 41859U 16069A   26177.13078510 -.00000039  00000+0  00000+0 0  9998","line2":"2 41859  55.5038 100.8388 0005266 330.1122  29.8311  1.70473777 59555"},{"name":"GSAT0212 (GALILEO 16)","line1":"1 41860U 16069B   26176.98423706 -.00000039  00000+0  00000+0 0  9993","line2":"2 41860  55.5014 100.8378 0004403  10.9452 349.0377  1.70473828 59805"},{"name":"GSAT0213 (GALILEO 17)","line1":"1 41861U 16069C   26176.17825865 -.00000039  00000+0  00000+0 0  9997","line2":"2 41861  55.5032 100.8681 0004629 315.3374  44.5989  1.70474298 59659"},{"name":"GSAT0214 (GALILEO 18)","line1":"1 41862U 16069D   26172.80498560 -.00000023  00000+0  00000+0 0  9995","line2":"2 41862  55.5000 100.9540 0003849 321.2487  38.7039  1.70473560 59724"},{"name":"SES-15","line1":"1 42709U 17026A   26177.72018891  .00000072  00000+0  00000+0 0  9994","line2":"2 42709   0.0197 336.5647 0000730 101.7226 326.6485  1.00267078  7523"},{"name":"QZS-2 (MICHIBIKI-2)","line1":"1 42738U 17028A   26177.49072513 -.00000138  00000+0  00000+0 0  9997","line2":"2 42738  39.4133 243.0175 0759188 269.3662  80.9134  1.00281441  7714"},{"name":"QZS-3 (MICHIBIKI-3)","line1":"1 42917U 17048A   26177.54818282 -.00000336  00000+0  00000+0 0  9995","line2":"2 42917   0.0673 148.6704 0002280 302.7459 147.6476  1.00272200 32355"},{"name":"COSMOS 2522 [GLONASS-M]","line1":"1 42939U 17055A   26175.16181676  .00000104  00000+0  00000+0 0  9995","line2":"2 42939  64.0776 191.6387 0008409 235.5259 124.4452  2.13101107 68121"},{"name":"QZS-4 (MICHIBIKI-4)","line1":"1 42965U 17062A   26177.33476632 -.00000355  00000+0  00000+0 0  9991","line2":"2 42965  40.1041 343.3683 0746721 268.2556 281.2054  1.00296962 31897"},{"name":"BEIDOU-3 M1","line1":"1 43001U 17069A   26177.26129769 -.00000086  00000+0  00000+0 0  9999","line2":"2 43001  56.7000  62.7851 0009948 326.4668  33.5129  1.86231392 58777"},{"name":"BEIDOU-3 M2","line1":"1 43002U 17069B   26177.20007009 -.00000086  00000+0  00000+0 0  9996","line2":"2 43002  56.6993  62.8231 0008922 352.8542   7.1754  1.86230727 58767"},{"name":"GSAT0215 (GALILEO 19)","line1":"1 43055U 17079A   26176.22771248  .00000057  00000+0  00000+0 0  9996","line2":"2 43055  55.0718 221.2853 0003380 264.8914  95.1572  1.70474697 53121"}]